[
    {
        "Altitude(m)": 717287.8243762419,
        "Argument of Periapsis(deg)": 0.011390121186627068,
        "Eccentricity": 0.0,
        "Inclination(deg)": 45.0,
        "Latitude(deg)": -43.708743280749246,
        "Longitude(deg)": 141.17630881783174,
        "Mean Anomaly(deg)": -103.01228335251913,
        "RAAN(deg)": 349.9892480585418,
        "Satellite Name": "Constellation 1 1555",
        "Satellite Number": 1555,
        "Semi-Major Axis(m)": 7083131.272910544,
        "Time(s)": 190
    },
    {
        "Altitude(m)": 717293.2974808236,
        "Argument of Periapsis(deg)": 0.011450069192872472,
        "Eccentricity": 0.0,
        "Inclination(deg)": 45.0,
        "Latitude(deg)": -43.72200524190779,
        "Longitude(deg)": 141.25374526008457,
        "Mean Anomaly(deg)": -102.9515822122693,
        "RAAN(deg)": 349.98919146937624,
        "Satellite Name": "Constellation 1 1555",
        "Satellite Number": 1555,
        "Semi-Major Axis(m)": 7083131.272910544,
        "Time(s)": 191
    },
    {
        "Altitude(m)": 717298.7463550481,
        "Argument of Periapsis(deg)": 0.01151001719911788,
        "Eccentricity": 0.0,
        "Inclination(deg)": 45.0,
        "Latitude(deg)": -43.73520898493926,
        "Longitude(deg)": 141.33121752453593,
        "Mean Anomaly(deg)": -102.89088107201948,
        "RAAN(deg)": 349.98913488021066,
        "Satellite Name": "Constellation 1 1555",
        "Satellite Number": 1555,
        "Semi-Major Axis(m)": 7083131.272910544,
        "Time(s)": 192
    },
    {
        "Altitude(m)": 717304.1709788161,
        "Argument of Periapsis(deg)": 0.011569965205363285,
        "Eccentricity": 0.0,
        "Inclination(deg)": 45.0,
        "Latitude(deg)": -43.74835445808475,
        "Longitude(deg)": 141.4087253176191,
        "Mean Anomaly(deg)": -102.83017993176948,
        "RAAN(deg)": 349.9890782910451,
        "Satellite Name": "Constellation 1 1555",
        "Satellite Number": 1555,
        "Semi-Major Axis(m)": 7083131.272910544,
        "Time(s)": 193
    },
    {
        "Altitude(m)": 717309.5713321355,
        "Argument of Periapsis(deg)": 0.01162991321160869,
        "Eccentricity": 0.0,
        "Inclination(deg)": 45.0,
        "Latitude(deg)": -43.761441609756965,
        "Longitude(deg)": 141.48626884952668,
        "Mean Anomaly(deg)": -102.76947879151955,
        "RAAN(deg)": 349.98902170187955,
        "Satellite Name": "Constellation 1 1555",
        "Satellite Number": 1555,
        "Semi-Major Axis(m)": 7083131.272910544,
        "Time(s)": 194
    },
    {
        "Altitude(m)": 717314.9473951028,
        "Argument of Periapsis(deg)": 0.011689861217854095,
        "Eccentricity": 0.0,
        "Inclination(deg)": 45.0,
        "Latitude(deg)": -43.77447038854,
        "Longitude(deg)": 141.56384782563123,
        "Mean Anomaly(deg)": -102.70877765126976,
        "RAAN(deg)": 349.98896511271397,
        "Satellite Name": "Constellation 1 1555",
        "Satellite Number": 1555,
        "Semi-Major Axis(m)": 7083131.272910544,
        "Time(s)": 195
    },
    {
        "Altitude(m)": 717320.2991478866,
        "Argument of Periapsis(deg)": 0.0117498092240995,
        "Eccentricity": 0.0,
        "Inclination(deg)": 45.0,
        "Latitude(deg)": -43.78744074319112,
        "Longitude(deg)": 141.64146211887376,
        "Mean Anomaly(deg)": -102.64807651101982,
        "RAAN(deg)": 349.9889085235484,
        "Satellite Name": "Constellation 1 1555",
        "Satellite Number": 1555,
        "Semi-Major Axis(m)": 7083131.272910544,
        "Time(s)": 196
    },
    {
        "Altitude(m)": 717325.6265707647,
        "Argument of Periapsis(deg)": 0.011809757230344905,
        "Eccentricity": 0.0,
        "Inclination(deg)": 45.0,
        "Latitude(deg)": -43.80035262264122,
        "Longitude(deg)": 141.719111601667,
        "Mean Anomaly(deg)": -102.58737537076983,
        "RAAN(deg)": 349.98885193438286,
        "Satellite Name": "Constellation 1 1555",
        "Satellite Number": 1555,
        "Semi-Major Axis(m)": 7083131.272910544,
        "Time(s)": 197
    },
    {
        "Altitude(m)": 717330.9296440921,
        "Argument of Periapsis(deg)": 0.011869705236590313,
        "Eccentricity": 0.0,
        "Inclination(deg)": 45.0,
        "Latitude(deg)": -43.81320597599585,
        "Longitude(deg)": 141.7967961458969,
        "Mean Anomaly(deg)": -102.52667423052,
        "RAAN(deg)": 349.9887953452172,
        "Satellite Name": "Constellation 1 1555",
        "Satellite Number": 1555,
        "Semi-Major Axis(m)": 7083131.272910544,
        "Time(s)": 198
    },
    {
        "Altitude(m)": 717336.208348318,
        "Argument of Periapsis(deg)": 0.011929653242835719,
        "Eccentricity": 0.0,
        "Inclination(deg)": 45.0,
        "Latitude(deg)": -43.82600075253607,
        "Longitude(deg)": 141.87451562292395,
        "Mean Anomaly(deg)": -102.46597309027017,
        "RAAN(deg)": 349.9887387560517,
        "Satellite Name": "Constellation 1 1555",
        "Satellite Number": 1555,
        "Semi-Major Axis(m)": 7083131.272910544,
        "Time(s)": 199
    }
]